NORAD_CAT_ID,OBJECT_NAME,OBJECT_TYPE,EPOCH,MEAN_MOTION,ECCENTRICITY,INCLINATION,RA_OF_ASC_NODE,ARG_OF_PERICENTER,MEAN_ANOMALY,BSTAR,MEAN_MOTION_DOT,MEAN_MOTION_DDOT,TLE_LINE0,TLE_LINE1,TLE_LINE2,SEMIMAJOR_AXIS,PERIOD,APOGEE,PERIGEE,DECAYED
51791.0,STARLINK-3602,PAYLOAD,2023-07-25 11:46:11,15.08837099,0.0002125,53.2148,330.6442,108.9578,251.1645,0.00012437,1.692e-05,0.0,0 STARLINK-3602,1 51791U 22017Z   23206.49041297  .00001692  00000-0  12437-3 0  9992,2 51791  53.2148 330.6442 0002125 108.9578 251.1645 15.08837099 79266,6917.889,95.438,541.224,538.284,0.0
51791.0,STARLINK-3602,PAYLOAD,2023-07-26 10:01:35,15.08845528,0.0001199,53.2172,326.4832,95.1132,264.9997,9.3701e-05,1.204e-05,0.0,0 STARLINK-3602,1 51791U 22017Z   23207.41777113  .00001204  00000-0  93701-4 0  9991,2 51791  53.2172 326.4832 0001199  95.1132 264.9997 15.08845528 79406,6917.863,95.437,540.558,538.899,0.0
51791.0,STARLINK-3602,PAYLOAD,2023-07-26 17:58:30,15.08856663,0.0001412,53.2166,324.9979,70.1309,289.9835,0.00051928,7.99e-05,0.0,0 STARLINK-3602,1 51791U 22017Z   23207.74896851  .00007990  00000-0  51928-3 0  9990,2 51791  53.2166 324.9979 0001412  70.1309 289.9835 15.08856663 79456,6917.829,95.437,540.671,538.718,0.0
51791.0,STARLINK-3602,PAYLOAD,2023-07-27 00:20:03,15.08846586,0.0001442,53.2153,323.8072,67.103,293.0114,0.00022068,3.227e-05,0.0,0 STARLINK-3602,1 51791U 22017Z   23208.01393094  .00003227  00000-0  22068-3 0  9994,2 51791  53.2153 323.8072 0001442  67.1030 293.0114 15.08846586 79497,6917.86,95.437,540.723,538.728,0.0
51791.0,STARLINK-3602,PAYLOAD,2023-07-27 14:38:32,15.08835243,0.0001622,53.2197,321.133,100.0408,260.0767,-2.3213e-05,-6.57e-06,0.0,0 STARLINK-3602,1 51791U 22017Z   23208.61009584 -.00000657  00000-0 -23213-4 0  9998,2 51791  53.2197 321.1330 0001622 100.0408 260.0767 15.08835243 79585,6917.895,95.438,540.882,538.638,0.0
51791.0,STARLINK-3602,PAYLOAD,2023-07-27 19:24:41,15.08837907,0.0001478,53.2173,320.2383,87.7526,272.3635,4.7388e-05,4.66e-06,0.0,0 STARLINK-3602,1 51791U 22017Z   23208.80881446  .00000466  00000-0  47388-4 0  9999,2 51791  53.2173 320.2383 0001478  87.7526 272.3635 15.08837907 79611,6917.887,95.438,540.774,538.729,0.0
51791.0,STARLINK-3602,PAYLOAD,2023-07-28 14:29:19,15.08840513,9.88e-05,53.2169,316.6711,91.3979,268.7126,1.337e-05,-7.5e-07,0.0,0 STARLINK-3602,1 51791U 22017Z   23209.60369376 -.00000075  00000-0  13370-4 0  9992,2 51791  53.2169 316.6711 0000988  91.3979 268.7126 15.08840513 79732,6917.879,95.438,540.427,539.06,0.0
51791.0,STARLINK-3602,PAYLOAD,2023-07-28 17:40:05,15.08846586,0.0001214,53.2178,316.0751,91.8924,268.2208,9.8319e-05,1.278e-05,0.0,0 STARLINK-3602,1 51791U 22017Z   23209.73617099  .00001278  00000-0  98319-4 0  9995,2 51791  53.2178 316.0751 0001214  91.8924 268.2208 15.08846586 79752,6917.86,95.437,540.565,538.885,0.0
51791.0,STARLINK-3602,PAYLOAD,2023-07-29 00:01:38,15.08838995,0.0001317,53.2187,314.8856,83.0142,277.1,5.1802e-05,5.37e-06,0.0,0 STARLINK-3602,1 51791U 22017Z   23210.00113561  .00000537  00000-0  51802-4 0  9995,2 51791  53.2187 314.8856 0001317  83.0142 277.1000 15.08838995 79791,6917.883,95.438,540.66,538.837,0.0
51791.0,STARLINK-3602,PAYLOAD,2023-07-30 11:00:07,15.08835427,0.0001373,53.2183,308.3436,72.0461,288.0681,-3.6083e-05,-8.62e-06,0.0,0 STARLINK-3602,1 51791U 22017Z   23211.45842105 -.00000862  00000-0 -36083-4 0  9995,2 51791  53.2183 308.3436 0001373  72.0461 288.0681 15.08835427 80013,6917.894,95.438,540.709,538.81,0.0
51791.0,STARLINK-3602,PAYLOAD,2023-07-31 10:50:54,15.08849175,0.0001187,53.2162,303.8836,88.4178,271.695,0.00030996,4.65e-05,0.0,0 STARLINK-3602,1 51791U 22017Z   23212.45201475  .00004650  00000-0  30996-3 0  9998,2 51791  53.2162 303.8836 0001187  88.4178 271.6950 15.08849175 80161,6917.852,95.437,540.538,538.896,0.0
51791.0,STARLINK-3602,PAYLOAD,2023-07-31 15:37:03,15.0885852,0.0001153,53.2164,302.9911,95.9958,264.1166,0.0004816,7.389e-05,0.0,0 STARLINK-3602,1 51791U 22017Z   23212.65073116  .00007389  00000-0  48160-3 0  9993,2 51791  53.2164 302.9911 0001153  95.9958 264.1166 15.08858520 80192,6917.824,95.436,540.486,538.891,0.0
51791.0,STARLINK-3602,PAYLOAD,2023-08-01 15:27:50,15.08846344,0.0001142,53.2163,298.5309,80.7191,279.393,0.00030157,4.516e-05,0.0,0 STARLINK-3602,1 51791U 22017Z   23213.64433572  .00004516  00000-0  30157-3 0  9995,2 51791  53.2163 298.5309 0001142  80.7191 279.3930 15.08846344 80346,6917.861,95.437,540.516,538.936,0.0
51791.0,STARLINK-3602,PAYLOAD,2023-08-02 08:57:05,15.08840581,0.0001164,53.216,295.2592,85.4215,274.691,0.00012161,1.648e-05,0.0,0 STARLINK-3602,1 51791U 22017Z   23214.37297838  .00001648  00000-0  12161-3 0  9997,2 51791  53.2160 295.2592 0001164  85.4215 274.6910 15.08840581 80459,6917.879,95.438,540.549,538.938,0.0
51791.0,STARLINK-3602,PAYLOAD,2023-08-02 15:18:37,15.08849395,0.0001122,53.2165,294.0703,80.9209,279.191,0.00025658,3.799e-05,0.0,0 STARLINK-3602,1 51791U 22017Z   23214.63793538  .00003799  00000-0  25658-3 0  9998,2 51791  53.2165 294.0703 0001122  80.9209 279.1910 15.08849395 80498,6917.852,95.437,540.493,538.94,0.0
51791.0,STARLINK-3602,PAYLOAD,2023-08-03 10:23:15,15.0884537,0.0001205,53.2171,290.5028,78.9582,281.1545,0.00019844,2.872e-05,0.0,0 STARLINK-3602,1 51791U 22017Z   23215.43281673  .00002872  00000-0  19844-3 0  9990,2 51791  53.2171 290.5028 0001205  78.9582 281.1545 15.08845370 80619,6917.864,95.437,540.563,538.895,0.0
51791.0,STARLINK-3602,PAYLOAD,2023-08-04 10:14:03,15.08832746,0.0001281,53.2173,286.0443,92.0362,268.0777,-2.7991e-05,-7.33e-06,0.0,0 STARLINK-3602,1 51791U 22017Z   23216.42642404 -.00000733  00000-0 -27991-4 0  9992,2 51791  53.2173 286.0443 0001281  92.0362 268.0777 15.08832746 80769,6917.903,95.438,540.654,538.881,0.0
51791.0,STARLINK-3602,PAYLOAD,2023-08-05 10:04:49,15.08848656,0.0001292,53.2167,281.5786,107.287,252.8264,0.00018463,2.652e-05,0.0,0 STARLINK-3602,1 51791U 22017Z   23217.42001680  .00002652  00000-0  18463-3 0  9991,2 51791  53.2167 281.5786 0001292 107.2870 252.8264 15.08848656 80913,6917.854,95.437,540.613,538.825,0.0
51791.0,STARLINK-3602,PAYLOAD,2023-08-05 21:12:31,15.08841513,0.00012,53.2161,279.4969,98.9897,261.1231,0.00016563,2.349e-05,0.0,0 STARLINK-3602,1 51791U 22017Z   23217.88370043  .00002349  00000-0  16563-3 0  9995,2 51791  53.2161 279.4969 0001200  98.9897 261.1231 15.08841513 80989,6917.876,95.437,540.571,538.911,0.0
51791.0,STARLINK-3602,PAYLOAD,2023-08-07 03:24:51,15.0883399,0.0001135,53.2145,273.8498,93.358,266.7542,-2.7501e-06,-3.32e-06,0.0,0 STARLINK-3602,1 51791U 22017Z   23219.14226534 -.00000332  00000-0 -27501-5 0  9999,2 51791  53.2145 273.8498 0001135  93.3580 266.7542 15.08833990 81179,6917.899,95.438,540.549,538.979,0.0
51791.0,STARLINK-3602,PAYLOAD,2023-08-08 09:37:11,15.08853793,0.0001089,53.215,268.1999,88.426,271.6857,0.00048617,7.461e-05,0.0,0 STARLINK-3602,1 51791U 22017Z   23220.40082339  .00007461  00000-0  48617-3 0  9990,2 51791  53.2150 268.1999 0001089  88.4260 271.6857 15.08853793 81364,6917.838,95.437,540.457,538.95,0.0
51791.0,STARLINK-3602,PAYLOAD,2023-08-08 20:44:53,15.08842751,0.0001205,53.2138,266.1161,95.6086,264.5044,0.00022171,3.243e-05,0.0,0 STARLINK-3602,1 51791U 22017Z   23220.86450502  .00003243  00000-0  22171-3 0  9992,2 51791  53.2138 266.1161 0001205  95.6086 264.5044 15.08842751 81434,6917.872,95.437,540.571,538.903,0.0
51791.0,STARLINK-3602,PAYLOAD,2023-08-09 09:27:58,15.08836715,0.0001135,53.2153,263.7396,81.1135,278.9985,8.0709e-05,9.97e-06,0.0,0 STARLINK-3602,1 51791U 22017Z   23221.39443118  .00000997  00000-0  80709-4 0  9991,2 51791  53.2153 263.7396 0001135  81.1135 278.9985 15.08836715 81516,6917.89,95.438,540.541,538.97,0.0
51791.0,STARLINK-3602,PAYLOAD,2023-08-10 09:18:45,15.08847051,0.0001218,53.2155,259.2796,80.277,279.8359,9.1035e-05,1.162e-05,0.0,0 STARLINK-3602,1 51791U 22017Z   23222.38802516  .00001162  00000-0  91035-4 0  9991,2 51791  53.2155 259.2796 0001218  80.2770 279.8359 15.08847051 81665,6917.859,95.437,540.566,538.881,0.0
51791.0,STARLINK-3602,PAYLOAD,2023-08-11 02:48:00,15.08838758,0.0001165,53.2148,256.008,72.495,287.6169,0.00015062,2.11e-05,0.0,0 STARLINK-3602,1 51791U 22017Z   23223.11666921  .00002110  00000-0  15062-3 0  9990,2 51791  53.2148 256.0080 0001165  72.4950 287.6169 15.08838758 81774,6917.884,95.438,540.555,538.943,0.0
51791.0,STARLINK-3602,PAYLOAD,2023-08-12 07:24:56,15.08842017,0.0001099,53.2162,250.6556,77.6189,282.4926,5.8389e-05,6.42e-06,0.0,0 STARLINK-3602,1 51791U 22017Z   23224.30898984  .00000642  00000-0  58389-4 0  9996,2 51791  53.2162 250.6556 0001099  77.6189 282.4926 15.08842017 81952,6917.874,95.437,540.499,538.979,0.0
51791.0,STARLINK-3602,PAYLOAD,2023-08-13 18:23:25,15.08839786,0.0001127,53.2159,244.112,77.1198,282.992,4.4746e-05,4.24e-06,0.0,0 STARLINK-3602,1 51791U 22017Z   23225.76627305  .00000424  00000-0  44746-4 0  9994,2 51791  53.2159 244.1120 0001127  77.1198 282.9920 15.08839786 82173,6917.881,95.438,540.526,538.966,0.0
51791.0,STARLINK-3602,PAYLOAD,2023-08-15 00:35:45,15.08839712,0.0001169,53.2162,238.4623,80.1104,280.002,8.0081e-05,9.87e-06,0.0,0 STARLINK-3602,1 51791U 22017Z   23227.02483544  .00000987  00000-0  80081-4 0  9996,2 51791  53.2162 238.4623 0001169  80.1104 280.0020 15.08839712 82368,6917.881,95.438,540.555,538.938,0.0
51791.0,STARLINK-3602,PAYLOAD,2023-08-16 06:48:04,15.08845614,0.000116,53.216,232.8122,81.2361,278.8762,0.00016781,2.384e-05,0.0,0 STARLINK-3602,1 51791U 22017Z   23228.28339015  .00002384  00000-0  16781-3 0  9996,2 51791  53.2160 232.8122 0001160  81.2361 278.8762 15.08845614 82553,6917.863,95.437,540.531,538.926,0.0
51791.0,STARLINK-3602,PAYLOAD,2023-08-17 00:17:19,15.08842843,0.0001206,53.2157,229.5413,81.6188,278.4941,5.8103e-05,6.37e-06,0.0,0 STARLINK-3602,1 51791U 22017Z   23229.01203319  .00000637  00000-0  58103-4 0  9999,2 51791  53.2157 229.5413 0001206  81.6188 278.4941 15.08842843 82665,6917.872,95.437,540.571,538.902,0.0
